GPS BIIA-23 (PRN 18)    
1 22877U 93068A   18340.57172209 -.00000076  00000-0  00000+0 0  9994
2 22877  54.5474  76.4359 0147468  78.0875 234.6834  2.00570449184000
GPS BIIR-2  (PRN 13)    
1 24876U 97035A   18340.03617475  .00000068  00000-0  00000+0 0  9993
2 24876  55.4703 206.0300 0034426  79.6883 280.7950  2.00564262156600
GPS BIIR-3  (PRN 11)    
1 25933U 99055A   18340.03327920 -.00000094  00000-0  00000+0 0  9995
2 25933  52.0038  54.2137 0165235 106.0196 179.5441  2.00563199140415
GPS BIIR-4  (PRN 20)    
1 26360U 00025A   18340.13583969  .00000017  00000-0  00000+0 0  9991
2 26360  53.2599 132.4924 0042979 127.2516 278.4943  2.00563179136103
GPS BIIR-5  (PRN 28)    
1 26407U 00040A   18340.34870703 -.00000080  00000-0  00000+0 0  9999
2 26407  56.3839 324.1547 0198248 274.4516 261.3008  2.00561509134783
GPS BIIR-6  (PRN 14)    
1 26605U 00071A   18340.57566267  .00000068  00000-0  00000+0 0  9990
2 26605  55.0440 203.5331 0102018 248.9322   0.2698  2.00565958132391
GPS BIIR-8  (PRN 16)    
1 27663U 03005A   18340.13391380 -.00000079  00000-0  00000+0 0  9992
2 27663  56.4464 323.9291 0101270  28.5870 111.3361  2.00556433116142
GPS BIIR-9  (PRN 21)    
1 27704U 03010A   18340.54176156 -.00000077  00000-0  00000+0 0  9999
2 27704  54.2202  75.9684 0247956 273.6617 125.4592  2.00574802114957
GPS BIIR-10 (PRN 22)    
1 28129U 03058A   18340.23173490  .00000021  00000-0  00000+0 0  9995
2 28129  53.0726 135.3105 0072195 276.4574  82.7024  2.00566904109649
GPS BIIR-11 (PRN 19)    
1 28190U 04009A   18340.16581363 -.00000085  00000-0  00000+0 0  9995
2 28190  56.2264  24.7316 0091817  75.2960 237.3248  2.00571377107824
GPS BIIR-12 (PRN 23)    
1 28361U 04023A   18340.31903781  .00000072  00000-0  00000+0 0  9995
2 28361  54.0512 198.1087 0127886 227.9635 108.6115  2.00562013105905
GPS BIIR-13 (PRN 02)    
1 28474U 04045A   18340.39107719 -.00000077  00000-0  00000+0 0  9995
2 28474  54.5835  75.6547 0187692 256.6482 135.2880  2.00571270103271
GPS BIIRM-1 (PRN 17)    
1 28874U 05038A   18339.22989560 -.00000084  00000-0  00000+0 0  9992
2 28874  56.3592  22.0987 0131521 259.7740 122.6322  2.00566417 96651
GPS BIIRM-2 (PRN 31)    
1 29486U 06042A   18340.56172021 -.00000027  00000-0  00000+0 0  9990
2 29486  55.0897 260.7616 0091213 354.9635 186.1009  2.00549483 89393
GPS BIIRM-3 (PRN 12)    
1 29601U 06052A   18339.75250739 -.00000079  00000-0  00000+0 0  9999
2 29601  56.4245 322.8606 0069365  57.3781 303.2856  2.00556888 88299
GPS BIIRM-4 (PRN 15)    
1 32260U 07047A   18339.57154769  .00000077  00000-0  00000+0 0  9992
2 32260  53.1751 194.0054 0109397  41.5944 319.3231  2.00571104 81669
GPS BIIRM-5 (PRN 29)    
1 32384U 07062A   18340.37557897 -.00000084  00000-0  00000+0 0  9994
2 32384  56.4383  22.6769 0003950  94.9290 262.8504  2.00573501 80416
GPS BIIRM-6 (PRN 07)    
1 32711U 08012A   18339.97728098 -.00000031  00000-0  00000+0 0  9993
2 32711  54.8263 260.0212 0122502 218.7476 140.3949  2.00568746 78603
GPS BIIRM-8 (PRN 05)    
1 35752U 09043A   18340.54196696  .00000025  00000-0  00000+0 0  9996
2 35752  54.3669 137.7173 0054398  39.6751  33.5553  2.00573325 68191
GPS BIIF-1  (PRN 25)    
1 36585U 10022A   18339.57865398 -.00000080  00000-0  00000+0 0  9995
2 36585  55.7094 319.3059 0075253  47.4051 160.4348  2.00577719 62419
GPS BIIF-2  (PRN 01)    
1 37753U 11036A   18340.57100017 -.00000072  00000-0  00000+0 0  9992
2 37753  55.7812  79.3798 0080413  38.6604 247.3929  2.00565087 54122
GPS BIIF-3  (PRN 24)    
1 38833U 12053A   18339.15926563 -.00000034  00000-0  00000+0 0  9994
2 38833  53.8590 256.4443 0076560  30.4572 330.0120  2.00570088 45154
GPS BIIF-4  (PRN 27)    
1 39166U 13023A   18340.02186484 -.00000084  00000-0  00000+0 0  9995
2 39166  56.0497  18.9075 0061533  22.5498 337.7800  2.00560834 40714
GPS BIIF-5  (PRN 30)    
1 39533U 14008A   18340.01983783 -.00000035  00000-0  00000+0 0  9999
2 39533  53.9971 261.7814 0036109 192.2134 167.7221  2.00565413 35087
GPS BIIF-6  (PRN 06)    
1 39741U 14026A   18339.80154601 -.00000075  00000-0  00000+0 0  9998
2 39741  55.7626  78.9347 0013964 286.6267  73.2107  2.00554602 33353
GPS BIIF-7  (PRN 09)    
1 40105U 14045A   18339.88849696  .00000075  00000-0  00000+0 0  9997
2 40105  54.5776 198.3240 0012000  97.2970 262.9316  2.00551292 31807
GPS BIIF-8  (PRN 03)    
1 40294U 14068A   18340.26212602  .00000032  00000-0  00000+0 0  9999
2 40294  55.1185 139.1306 0017293  34.7894 325.3107  2.00568998 30041
GPS BIIF-9  (PRN 26)    
1 40534U 15013A   18338.90509156 -.00000080  00000-0  00000+0 0  9992
2 40534  54.6445 317.8777 0033087 359.0610   0.9247  2.00553407 27075
GPS BIIF-10  (PRN 08)   
1 40730U 15033A   18340.05755739 -.00000085  00000-0  00000+0 0  9996
2 40730  55.5776  18.3337 0040004 333.4181  26.4363  2.00565168 24853
GPS BIIF-11  (PRN 10)   
1 41019U 15062A   18340.11036392  .00000033  00000-0  00000+0 0  9995
2 41019  55.1217 138.9456 0041516 201.8084 158.0030  2.00564589 22677
GPS BIIF-12  (PRN 32)   
1 41328U 16007A   18340.20171555  .00000074  00000-0  00000+0 0  9994
2 41328  54.8248 198.6490 0024737 214.3263 145.6056  2.00556593 20736
